BEIDOU-2 IGSO-1 (C06)   
1 36828U 10036A   25014.34335153 -.00000112  00000+0  00000+0 0  9999
2 36828  54.2669 167.6519 0043757 206.8400 330.5708  1.00269534 52892
BEIDOU-2 G4 (C04)       
1 37210U 10057A   25014.41799567 -.00000115  00000+0  00000+0 0  9992
2 37210   2.3605  70.3684 0009405 195.1993 159.0081  1.00270715 52086
BEIDOU-2 IGSO-2 (C07)   
1 37256U 10068A   25014.61620904 -.00000182  00000+0  00000+0 0  9998
2 37256  48.4879 278.2357 0039136 214.4693 311.1730  1.00285379 51591
BEIDOU-2 IGSO-3 (C08)   
1 37384U 11013A   25014.59022338 -.00000157  00000+0  00000+0 0  9997
2 37384  61.6602  45.0748 0029594 185.0893 201.5022  1.00256092 50461
BEIDOU-2 IGSO-4 (C09)   
1 37763U 11038A   25012.91706692 -.00000039  00000+0  00000+0 0  9990
2 37763  54.5714 170.3203 0132087 228.6180 139.3647  1.00263638 49430
BEIDOU-2 IGSO-5 (C10)   
1 37948U 11073A   25014.62791833 -.00000170  00000+0  00000+0 0  9991
2 37948  48.6238 277.9335 0101230 220.6089 297.4715  1.00284590 47931
BEIDOU-2 G5 (C05)       
1 38091U 12008A   25014.47636556  .00000054  00000+0  00000+0 0  9993
2 38091   2.2815  71.1752 0013344 233.9785  39.2257  1.00273783 47163
BEIDOU-2 M3 (C11)       
1 38250U 12018A   25013.95459061 -.00000098  00000+0  00000+0 0  9996
2 38250  56.1874 322.3129 0024266 271.4696  88.2481  1.86233625 86278
